OBJECT_NAME,OBJECT_ID,EPOCH,MEAN_MOTION,ECCENTRICITY,INCLINATION,RA_OF_ASC_NODE,ARG_OF_PERICENTER,MEAN_ANOMALY,EPHEMERIS_TYPE,CLASSIFICATION_TYPE,NORAD_CAT_ID,ELEMENT_SET_NO,REV_AT_EPOCH,BSTAR,MEAN_MOTION_DOT,MEAN_MOTION_DDOT
GEOSCAN 3 (RS92S3),2025-155T,2026-07-23T20:53:21.717600,15.36555129,.0008081,97.4554,175.2116,65.0810,295.1273,0,U,64893,999,8648,.54456E-3,.19393E-3,0
INNOSAT 3 (RS92S0),2025-155U,2026-07-23T20:06:53.263872,15.46369342,.000758,97.4497,177.2862,71.8367,288.3707,0,U,64894,999,8662,.88536E-3,.43875E-3,0
KNACKSAT-2,1998-067XZ,2026-07-23T10:39:30.699648,15.63109513,.0007497,51.6273,111.6691,354.9110,5.1807,0,U,67683,999,2594,.64569E-3,.6001E-3,0
