GEOSCAN 3 (RS92S3)      
1 64893U 25155T   26204.87039025  .00019393  00000+0  54456-3 0  9997
2 64893  97.4554 175.2116 0008081  65.0810 295.1273 15.36555129 86483
INNOSAT 3 (RS92S0)      
1 64894U 25155U   26204.83811648  .00043875  00000+0  88536-3 0  9991
2 64894  97.4497 177.2862 0007580  71.8367 288.3707 15.46369342 86628
KNACKSAT-2              
1 67683U 98067XZ  26204.44410532  .00060010  00000+0  64569-3 0  9996
2 67683  51.6273 111.6691 0007497 354.9110   5.1807 15.63109513 25946
